NORAD_CAT_ID,OBJECT_NAME,OBJECT_TYPE,EPOCH,MEAN_MOTION,ECCENTRICITY,INCLINATION,RA_OF_ASC_NODE,ARG_OF_PERICENTER,MEAN_ANOMALY,BSTAR,MEAN_MOTION_DOT,MEAN_MOTION_DDOT,TLE_LINE0,TLE_LINE1,TLE_LINE2,SEMIMAJOR_AXIS,PERIOD,APOGEE,PERIGEE,DECAYED
56453.0,STARLINK-5935,PAYLOAD,2024-06-02 22:12:56,14.98333897,0.0003213,70.0001,330.256,270.5185,89.5606,9.3768e-05,1.026e-05,0.0,0 STARLINK-5935,1 56453U 23064F   24154.92565748  .00001026  00000-0  93768-4 0  9996,2 56453  70.0001 330.2560 0003213 270.5185  89.5606 14.98333897 58663,6950.181,96.107,574.279,569.813,0.0
56453.0,STARLINK-5935,PAYLOAD,2024-06-03 12:38:09,14.98333261,0.0003239,70.0002,328.7411,269.1976,90.8812,0.00010054,1.107e-05,0.0,0 STARLINK-5935,1 56453U 23064F   24155.52649798  .00001107  00000-0  10054-3 0  9997,2 56453  70.0002 328.7411 0003239 269.1976  90.8812 14.98333261 59111,6950.183,96.107,574.299,569.797,0.0
56453.0,STARLINK-5935,PAYLOAD,2024-06-03 22:14:57,14.98337077,0.0003205,70.0003,327.7311,269.8364,90.2428,0.00013422,1.509e-05,0.0,0 STARLINK-5935,1 56453U 23064F   24155.92705415  .00001509  00000-0  13422-3 0  9998,2 56453  70.0003 327.7311 0003205 269.8364  90.2428 14.98337077 58813,6950.171,96.107,574.264,569.808,0.0
56453.0,STARLINK-5935,PAYLOAD,2024-06-04 11:04:02,14.98333079,0.0003077,69.9986,326.3841,269.373,90.7077,5.6635e-05,5.83e-06,0.0,0 STARLINK-5935,1 56453U 23064F   24156.46113784  .00000583  00000-0  56635-4 0  9995,2 56453  69.9986 326.3841 0003077 269.3730  90.7077 14.98333079 58893,6950.183,96.107,574.187,569.91,0.0
56453.0,STARLINK-5935,PAYLOAD,2024-06-04 17:28:34,14.98334856,0.0003043,69.9987,325.711,268.5667,91.5143,8.536e-05,9.26e-06,0.0,0 STARLINK-5935,1 56453U 23064F   24156.72817575  .00000926  00000-0  85360-4 0  9991,2 56453  69.9987 325.7110 0003043 268.5667  91.5143 14.98334856 59291,6950.178,96.107,574.158,569.928,0.0
56453.0,STARLINK-5935,PAYLOAD,2024-06-05 12:42:11,14.98326859,0.0003165,69.9976,323.6895,268.3724,91.7073,1.9132e-05,1.35e-06,0.0,0 STARLINK-5935,1 56453U 23064F   24157.52930151  .00000135  00000-0  19132-4 0  9992,2 56453  69.9976 323.6895 0003165 268.3724  91.7073 14.98326859 59415,6950.203,96.107,574.267,569.868,0.0
56453.0,STARLINK-5935,PAYLOAD,2024-06-05 20:42:51,14.98329334,0.0003063,69.9984,322.848,266.1775,93.9034,1.0629e-05,3.4e-07,0.0,0 STARLINK-5935,1 56453U 23064F   24157.86310032  .00000034  00000-0  10629-4 0  9999,2 56453  69.9984 322.8480 0003063 266.1775  93.9034 14.98329334 59102,6950.195,96.107,574.189,569.931,0.0
56453.0,STARLINK-5935,PAYLOAD,2024-06-06 11:08:04,14.98327884,0.0003149,69.9978,321.3326,267.8627,92.2171,7.9533e-05,8.56e-06,0.0,0 STARLINK-5935,1 56453U 23064F   24158.46394008  .00000856  00000-0  79533-4 0  9992,2 56453  69.9978 321.3326 0003149 267.8627  92.2171 14.98327884 59198,6950.199,96.107,574.253,569.876,0.0
56453.0,STARLINK-5935,PAYLOAD,2024-06-06 20:44:52,14.98332076,0.0003302,69.9982,320.324,268.973,91.105,8.9228e-05,9.72e-06,0.0,0 STARLINK-5935,1 56453U 23064F   24158.86449814  .00000972  00000-0  89228-4 0  9993,2 56453  69.9982 320.3240 0003302 268.9730  91.1050 14.98332076 59615,6950.186,96.107,574.346,569.757,0.0
56453.0,STARLINK-5935,PAYLOAD,2024-06-07 17:34:37,14.98325435,0.0002625,69.9986,318.1356,263.9201,96.1658,0.00032589,3.797e-05,0.0,0 STARLINK-5935,1 56453U 23064F   24159.73237962  .00003797  00000-0  32589-3 0  9994,2 56453  69.9986 318.1356 0002625 263.9201  96.1658 14.98325435 59381,6950.207,96.107,573.896,570.248,0.0
56453.0,STARLINK-5935,PAYLOAD,2024-06-08 03:11:26,14.98319456,0.0003034,70.0008,317.1259,272.4261,87.6551,0.00045863,5.382e-05,0.0,0 STARLINK-5935,1 56453U 23064F   24160.13294175  .00005382  00000-0  45863-3 0  9990,2 56453  70.0008 317.1259 0003034 272.4261  87.6551 14.98319456 59806,6950.225,96.108,574.199,569.982,0.0
56453.0,STARLINK-5935,PAYLOAD,2024-06-08 11:12:06,14.98334364,0.0003051,70.0016,316.2843,272.6676,87.4134,0.00011618,1.294e-05,0.0,0 STARLINK-5935,1 56453U 23064F   24160.46673708  .00001294  00000-0  11618-3 0  9998,2 56453  70.0016 316.2843 0003051 272.6676  87.4134 14.98334364 59490,6950.179,96.107,574.165,569.924,0.0
56453.0,STARLINK-5935,PAYLOAD,2024-06-09 11:14:07,14.9832582,0.0003064,70.0003,313.759,269.8269,90.2539,-6.5774e-05,-8.78e-06,0.0,0 STARLINK-5935,1 56453U 23064F   24161.46814441 -.00000878  00000-0 -65774-4 0  9992,2 56453  70.0003 313.7590 0003064 269.8269  90.2539 14.98325820 60004,6950.206,96.107,574.2,569.941,0.0
56453.0,STARLINK-5935,PAYLOAD,2024-06-09 20:50:55,14.98328248,0.0002972,70.0012,312.75,266.7443,93.3377,-2.8511e-05,-4.33e-06,0.0,0 STARLINK-5935,1 56453U 23064F   24161.86870266 -.00000433  00000-0 -28511-4 0  9998,2 56453  70.0012 312.7500 0002972 266.7443  93.3377 14.98328248 59707,6950.198,96.107,574.129,569.998,0.0
56453.0,STARLINK-5935,PAYLOAD,2024-06-10 03:15:27,14.98331034,0.0003158,70.0,312.0755,269.5596,90.5201,3.5348e-05,3.29e-06,0.0,0 STARLINK-5935,1 56453U 23064F   24162.13573970  .00000329  00000-0  35348-4 0  9999,2 56453  70.0000 312.0755 0003158 269.5596  90.5201 14.98331034 60104,6950.19,96.107,574.25,569.86,0.0
56453.0,STARLINK-5935,PAYLOAD,2024-06-10 14:28:24,14.9833237,0.000325,70.0005,310.8983,265.9174,94.1613,0.00011322,1.258e-05,0.0,0 STARLINK-5935,1 56453U 23064F   24162.60305720  .00001258  00000-0  11322-3 0  9994,2 56453  70.0005 310.8983 0003250 265.9174  94.1613 14.98332370 59810,6950.186,96.107,574.309,569.792,0.0
56453.0,STARLINK-5935,PAYLOAD,2024-06-10 19:16:48,14.98337904,0.000297,70.0012,310.394,265.5358,94.5462,9.0829e-05,9.91e-06,0.0,0 STARLINK-5935,1 56453U 23064F   24162.80333485  .00000991  00000-0  90829-4 0  9998,2 56453  70.0012 310.3940 0002970 265.5358  94.5462 14.98337904 59841,6950.168,96.106,574.098,569.969,0.0
56453.0,STARLINK-5935,PAYLOAD,2024-06-11 03:17:28,14.98329881,0.0003374,70.001,309.5519,267.0871,92.9902,0.00025974,3.008e-05,0.0,0 STARLINK-5935,1 56453U 23064F   24163.13713516  .00003008  00000-0  25974-3 0  9992,2 56453  70.0010 309.5519 0003374 267.0871  92.9902 14.98329881 60250,6950.193,96.107,574.403,569.713,0.0
56453.0,STARLINK-5935,PAYLOAD,2024-06-11 14:30:25,14.98330803,0.0002931,70.0026,308.3736,268.4418,91.6405,0.00019733,2.262e-05,0.0,0 STARLINK-5935,1 56453U 23064F   24163.60445918  .00002262  00000-0  19733-3 0  9999,2 56453  70.0026 308.3736 0002931 268.4418  91.6405 14.98330803 59961,6950.19,96.107,574.093,570.018,0.0
56453.0,STARLINK-5935,PAYLOAD,2024-06-12 03:19:29,14.98329309,0.0003056,70.0019,307.026,269.2663,90.8146,5.3937e-05,5.51e-06,0.0,0 STARLINK-5935,1 56453U 23064F   24164.13853927  .00000551  00000-0  53937-4 0  9995,2 56453  70.0019 307.0260 0003056 269.2663  90.8146 14.98329309 60404,6950.195,96.107,574.184,569.936,0.0
56453.0,STARLINK-5935,PAYLOAD,2024-06-12 19:20:50,14.98329543,0.0003115,70.0005,305.343,269.4681,90.6121,1.9058e-05,1.34e-06,0.0,0 STARLINK-5935,1 56453U 23064F   24164.80614233  .00000134  00000-0  19058-4 0  9997,2 56453  70.0005 305.3430 0003115 269.4681  90.6121 14.98329543 60149,6950.194,96.107,574.224,569.894,0.0
56453.0,STARLINK-5935,PAYLOAD,2024-06-13 12:58:18,14.98340429,0.000294,70.0005,303.4913,272.1599,87.9223,-9.1667e-06,-2.02e-06,0.0,0 STARLINK-5935,1 56453U 23064F   24165.54049455 -.00000202  00000-0 -91667-5 0  9992,2 56453  70.0005 303.4913 0002940 272.1599  87.9223 14.98340429 60618,6950.161,96.106,574.069,569.982,0.0
56453.0,STARLINK-5935,PAYLOAD,2024-06-13 19:22:50,14.98338721,0.0003118,70.0005,302.8182,271.9736,88.1066,0.00012787,1.433e-05,0.0,0 STARLINK-5935,1 56453U 23064F   24165.80753238  .00001433  00000-0  12787-3 0  9991,2 56453  70.0005 302.8182 0003118 271.9736  88.1066 14.98338721 60291,6950.166,96.106,574.198,569.864,0.0
56453.0,STARLINK-5935,PAYLOAD,2024-06-14 13:00:20,14.98325289,0.0003088,70.0007,300.9666,272.3708,87.7097,9.3609e-05,1.024e-05,0.0,0 STARLINK-5935,1 56453U 23064F   24166.54190221  .00001024  00000-0  93609-4 0  9999,2 56453  70.0007 300.9666 0003088 272.3708  87.7097 14.98325289 60406,6950.207,96.107,574.219,569.926,0.0
56453.0,STARLINK-5935,PAYLOAD,2024-06-14 19:24:52,14.98329649,0.0003013,70.0008,300.2939,270.9209,89.1605,0.00012923,1.449e-05,0.0,0 STARLINK-5935,1 56453U 23064F   24166.80893904  .00001449  00000-0  12923-3 0  9996,2 56453  70.0008 300.2939 0003013 270.9209  89.1605 14.98329649 60440,6950.194,96.107,574.153,569.965,0.0
56453.0,STARLINK-5935,PAYLOAD,2024-06-15 14:38:28,14.98337063,0.0003023,70.0007,298.274,270.4039,89.6774,5.1243e-05,5.19e-06,0.0,0 STARLINK-5935,1 56453U 23064F   24167.61005412  .00000519  00000-0  51243-4 0  9991,2 56453  70.0007 298.2740 0003023 270.4039  89.6774 14.98337063 60566,6950.171,96.107,574.137,569.935,0.0
56453.0,STARLINK-5935,PAYLOAD,2024-06-15 17:50:44,14.9834036,0.0002984,70.0007,297.9375,269.9695,90.1122,8.7186e-05,9.48e-06,0.0,0 STARLINK-5935,1 56453U 23064F   24167.74357043  .00000948  00000-0  87186-4 0  9996,2 56453  70.0007 297.9375 0002984 269.9695  90.1122 14.98340360 60582,6950.161,96.106,574.1,569.952,0.0
56453.0,STARLINK-5935,PAYLOAD,2024-06-16 14:40:27,14.98355921,0.0003199,70.0003,295.7488,264.8771,95.2023,0.00034796,4.064e-05,0.0,0 STARLINK-5935,1 56453U 23064F   24168.61143223  .00004064  00000-0  34796-3 0  9997,2 56453  70.0003 295.7488 0003199 264.8771  95.2023 14.98355921 60717,6950.113,96.105,574.201,569.754,0.0
56453.0,STARLINK-5935,PAYLOAD,2024-06-16 19:28:51,14.98362722,0.0003068,70.0003,295.2432,265.0944,94.9865,0.00041548,4.872e-05,0.0,0 STARLINK-5935,1 56453U 23064F   24168.81170439  .00004872  00000-0  41548-3 0  9998,2 56453  70.0003 295.2432 0003068 265.0944  94.9865 14.98362722 60741,6950.092,96.105,574.089,569.824,0.0
56453.0,STARLINK-5935,PAYLOAD,2024-06-17 17:54:47,14.98317213,0.0002866,70.0005,292.887,265.1866,94.8966,-0.00017269,-2.152e-05,0.0,0 STARLINK-5935,1 56453U 23064F   24169.74638339 -.00002152  00000-0 -17269-3 0  9993,2 56453  70.0005 292.8870 0002866 265.1866  94.8966 14.98317213 60882,6950.232,96.108,574.089,570.105,0.0
